[{"OBJECT_NAME":"STARLINK-3595","OBJECT_ID":"2022-022AU","EPOCH":"2026-03-09T22:32:24.505728","MEAN_MOTION":15.08798956,"ECCENTRICITY":0.00015385,"INCLINATION":53.2185,"RA_OF_ASC_NODE":357.9999,"ARG_OF_PERICENTER":99.9713,"MEAN_ANOMALY":260.1453,"EPHEMERIS_TYPE":0,"CLASSIFICATION_TYPE":"U","NORAD_CAT_ID":51894,"ELEMENT_SET_NO":999,"REV_AT_EPOCH":22334,"BSTAR":0.00052510238,"MEAN_MOTION_DOT":8.07e-5,"MEAN_MOTION_DDOT":0},{"OBJECT_NAME":"CZ-6A DEB","OBJECT_ID":"2022-151KB","EPOCH":"2026-03-09T19:20:41.637408","MEAN_MOTION":14.94061736,"ECCENTRICITY":0.0071589,"INCLINATION":98.7004,"RA_OF_ASC_NODE":166.2159,"ARG_OF_PERICENTER":166.3306,"MEAN_ANOMALY":193.9872,"EPHEMERIS_TYPE":0,"CLASSIFICATION_TYPE":"U","NORAD_CAT_ID":54523,"ELEMENT_SET_NO":999,"REV_AT_EPOCH":17710,"BSTAR":0.0044467837,"MEAN_MOTION_DOT":0.00050189,"MEAN_MOTION_DDOT":0}]
